USA 153                 
1 26575U 00065A   23116.75118653 -.00000325  00000+0  00000+0 0  9994
2 26575   9.6341  43.7995 0001021 298.3134 277.1241  1.00270309 21426
AMC-6 (GE-6)            
1 26580U 00067A   23116.72176228  .00000102  00000+0  00000+0 0  9993
2 26580   0.0515  74.6248 0002097 337.4734 283.1846  1.00272454 82393
INTELSAT 1R (IS-1R)     
1 26608U 00072A   23117.12688362 -.00000138  00000+0  00000+0 0  9992
2 26608   5.2377  76.3895 0001453  28.2467 312.9991  1.00272165 82152
ANIK F1                 
1 26624U 00076A   23116.58423978 -.00000063  00000+0  00000+0 0  9990
2 26624   2.2315  88.7716 0008689 335.3240 251.3970  1.00272746 31632
USA 157 (MILSTAR-2 2)   
1 26715U 01009A   23116.45629178  .00000013  00000+0  00000+0 0  9998
2 26715  10.3158  25.8755 0001974 345.7716 242.5819  1.00269409 21440
EUTELSAT 133 WEST A     
1 26719U 01011A   23116.74921920  .00000023  00000+0  00000+0 0  9998
2 26719   4.4876  79.6313 0002533 290.8624 112.9883  1.00464820 81049
INTELSAT 10 (IS-10)     
1 26766U 01019A   23116.64064897  .00000033  00000+0  00000+0 0  9999
2 26766   6.3246  70.5972 0004059 326.8893 225.3232  1.00271240 34112
INTELSAT 901 (IS-901)   
1 26824U 01024A   23116.67227663 -.00000204  00000+0  00000+0 0  9996
2 26824   0.0389  77.4690 0000527 315.4820  35.9832  1.00271717 11473
ASTRA 2C                
1 26853U 01025A   23117.12120698 -.00000259  00000+0  00000+0 0  9990
2 26853   5.3388  76.2589 0003074 306.5224 163.2038  1.00275479 80079
USA 159 (DSP 21)        
1 26880U 01033A   23117.16020027 -.00000297  00000+0  00000+0 0  9990
2 26880  11.7106  23.8756 0001127 306.4440 253.1366  1.00277273 20114
INTELSAT 902 (IS-902)   
1 26900U 01039A   23117.02620478 -.00000283  00000+0  00000+0 0  9995
2 26900   3.1981  85.4546 0003342 333.7483 114.8998  1.00271873 79269
USA 164 (MILSTAR-2 3)   
1 27168U 02001A   23117.09007843  .00000033  00000+0  00000+0 0  9996
2 27168   9.8456  27.7251 0100978 352.0546 246.4200  1.00276693 20141
INTELSAT 904 (IS-904)   
1 27380U 02007A   23116.74355347 -.00000214  00000+0  00000+0 0  9996
2 27380   4.0245  82.5210 0002919 310.3706  59.7660  1.00271791 40269
NSS-7                   
1 27414U 02019A   23116.67375841 -.00000158  00000+0  00000+0 0  9997
2 27414   6.6346  68.6413 0002636 321.8955  46.4133  1.00271878 77068
DIRECTV 5 (TEMPO 1)     
1 27426U 02023A   23116.58406545 -.00000057  00000+0  00000+0 0  9999
2 27426   1.9256  89.4356 0003224 309.2547 275.7929  1.00273144 76615
INTELSAT 905 (IS-905)   
1 27438U 02027A   23116.74451229 -.00000185  00000+0  00000+0 0  9995
2 27438   3.8477  83.2225 0002622 304.0375  70.7512  1.00271714 39862
GALAXY 3C (G-3C)        
1 27445U 02030A   23116.58720338 -.00000154  00000+0  00000+0 0  9995
2 27445   0.7601  91.3112 0000391  46.1133 193.4528  1.00271838 34982
