[{"OBJECT_NAME":"USA 153","OBJECT_ID":"2000-065A","EPOCH":"2023-04-26T18:01:42.516192","MEAN_MOTION":1.00270309,"ECCENTRICITY":0.0001021,"INCLINATION":9.6341,"RA_OF_ASC_NODE":43.7995,"ARG_OF_PERICENTER":298.3134,"MEAN_ANOMALY":277.1241,"EPHEMERIS_TYPE":0,"CLASSIFICATION_TYPE":"U","NORAD_CAT_ID":26575,"ELEMENT_SET_NO":999,"REV_AT_EPOCH":2142,"BSTAR":0,"MEAN_MOTION_DOT":-3.25e-6,"MEAN_MOTION_DDOT":0},{"OBJECT_NAME":"AMC-6 (GE-6)","OBJECT_ID":"2000-067A","EPOCH":"2023-04-26T17:19:20.260992","MEAN_MOTION":1.00272454,"ECCENTRICITY":0.0002097,"INCLINATION":0.0515,"RA_OF_ASC_NODE":74.6248,"ARG_OF_PERICENTER":337.4734,"MEAN_ANOMALY":283.1846,"EPHEMERIS_TYPE":0,"CLASSIFICATION_TYPE":"U","NORAD_CAT_ID":26580,"ELEMENT_SET_NO":999,"REV_AT_EPOCH":8239,"BSTAR":0,"MEAN_MOTION_DOT":1.02e-6,"MEAN_MOTION_DDOT":0},{"OBJECT_NAME":"INTELSAT 1R (IS-1R)","OBJECT_ID":"2000-072A","EPOCH":"2023-04-27T03:02:42.744768","MEAN_MOTION":1.00272165,"ECCENTRICITY":0.0001453,"INCLINATION":5.2377,"RA_OF_ASC_NODE":76.3895,"ARG_OF_PERICENTER":28.2467,"MEAN_ANOMALY":312.9991,"EPHEMERIS_TYPE":0,"CLASSIFICATION_TYPE":"U","NORAD_CAT_ID":26608,"ELEMENT_SET_NO":999,"REV_AT_EPOCH":8215,"BSTAR":0,"MEAN_MOTION_DOT":-1.38e-6,"MEAN_MOTION_DDOT":0},{"OBJECT_NAME":"ANIK F1","OBJECT_ID":"2000-076A","EPOCH":"2023-04-26T14:01:18.316992","MEAN_MOTION":1.00272746,"ECCENTRICITY":0.0008689,"INCLINATION":2.2315,"RA_OF_ASC_NODE":88.7716,"ARG_OF_PERICENTER":335.324,"MEAN_ANOMALY":251.397,"EPHEMERIS_TYPE":0,"CLASSIFICATION_TYPE":"U","NORAD_CAT_ID":26624,"ELEMENT_SET_NO":999,"REV_AT_EPOCH":3163,"BSTAR":0,"MEAN_MOTION_DOT":-6.3e-7,"MEAN_MOTION_DDOT":0},{"OBJECT_NAME":"USA 157 (MILSTAR-2 2)","OBJECT_ID":"2001-009A","EPOCH":"2023-04-26T10:57:03.609792","MEAN_MOTION":1.00269409,"ECCENTRICITY":0.0001974,"INCLINATION":10.3158,"RA_OF_ASC_NODE":25.8755,"ARG_OF_PERICENTER":345.7716,"MEAN_ANOMALY":242.5819,"EPHEMERIS_TYPE":0,"CLASSIFICATION_TYPE":"U","NORAD_CAT_ID":26715,"ELEMENT_SET_NO":999,"REV_AT_EPOCH":2144,"BSTAR":0,"MEAN_MOTION_DOT":1.3e-7,"MEAN_MOTION_DDOT":0},{"OBJECT_NAME":"EUTELSAT 133 WEST A","OBJECT_ID":"2001-011A","EPOCH":"2023-04-26T17:58:52.538880","MEAN_MOTION":1.0046482,"ECCENTRICITY":0.0002533,"INCLINATION":4.4876,"RA_OF_ASC_NODE":79.6313,"ARG_OF_PERICENTER":290.8624,"MEAN_ANOMALY":112.9883,"EPHEMERIS_TYPE":0,"CLASSIFICATION_TYPE":"U","NORAD_CAT_ID":26719,"ELEMENT_SET_NO":999,"REV_AT_EPOCH":8104,"BSTAR":0,"MEAN_MOTION_DOT":2.3e-7,"MEAN_MOTION_DDOT":0},{"OBJECT_NAME":"INTELSAT 10 (IS-10)","OBJECT_ID":"2001-019A","EPOCH":"2023-04-26T15:22:32.071008","MEAN_MOTION":1.0027124,"ECCENTRICITY":0.0004059,"INCLINATION":6.3246,"RA_OF_ASC_NODE":70.5972,"ARG_OF_PERICENTER":326.8893,"MEAN_ANOMALY":225.3232,"EPHEMERIS_TYPE":0,"CLASSIFICATION_TYPE":"U","NORAD_CAT_ID":26766,"ELEMENT_SET_NO":999,"REV_AT_EPOCH":3411,"BSTAR":0,"MEAN_MOTION_DOT":3.3e-7,"MEAN_MOTION_DDOT":0},{"OBJECT_NAME":"INTELSAT 901 (IS-901)","OBJECT_ID":"2001-024A","EPOCH":"2023-04-26T16:08:04.700832","MEAN_MOTION":1.00271717,"ECCENTRICITY":5.27e-5,"INCLINATION":0.0389,"RA_OF_ASC_NODE":77.469,"ARG_OF_PERICENTER":315.482,"MEAN_ANOMALY":35.9832,"EPHEMERIS_TYPE":0,"CLASSIFICATION_TYPE":"U","NORAD_CAT_ID":26824,"ELEMENT_SET_NO":999,"REV_AT_EPOCH":1147,"BSTAR":0,"MEAN_MOTION_DOT":-2.04e-6,"MEAN_MOTION_DDOT":0},{"OBJECT_NAME":"ASTRA 2C","OBJECT_ID":"2001-025A","EPOCH":"2023-04-27T02:54:32.283072","MEAN_MOTION":1.00275479,"ECCENTRICITY":0.0003074,"INCLINATION":5.3388,"RA_OF_ASC_NODE":76.2589,"ARG_OF_PERICENTER":306.5224,"MEAN_ANOMALY":163.2038,"EPHEMERIS_TYPE":0,"CLASSIFICATION_TYPE":"U","NORAD_CAT_ID":26853,"ELEMENT_SET_NO":999,"REV_AT_EPOCH":8007,"BSTAR":0,"MEAN_MOTION_DOT":-2.59e-6,"MEAN_MOTION_DDOT":0},{"OBJECT_NAME":"USA 159 (DSP 21)","OBJECT_ID":"2001-033A","EPOCH":"2023-04-27T03:50:41.303328","MEAN_MOTION":1.00277273,"ECCENTRICITY":0.0001127,"INCLINATION":11.7106,"RA_OF_ASC_NODE":23.8756,"ARG_OF_PERICENTER":306.444,"MEAN_ANOMALY":253.1366,"EPHEMERIS_TYPE":0,"CLASSIFICATION_TYPE":"U","NORAD_CAT_ID":26880,"ELEMENT_SET_NO":999,"REV_AT_EPOCH":2011,"BSTAR":0,"MEAN_MOTION_DOT":-2.97e-6,"MEAN_MOTION_DDOT":0},{"OBJECT_NAME":"INTELSAT 902 (IS-902)","OBJECT_ID":"2001-039A","EPOCH":"2023-04-27T00:37:44.092992","MEAN_MOTION":1.00271873,"ECCENTRICITY":0.0003342,"INCLINATION":3.1981,"RA_OF_ASC_NODE":85.4546,"ARG_OF_PERICENTER":333.7483,"MEAN_ANOMALY":114.8998,"EPHEMERIS_TYPE":0,"CLASSIFICATION_TYPE":"U","NORAD_CAT_ID":26900,"ELEMENT_SET_NO":999,"REV_AT_EPOCH":7926,"BSTAR":0,"MEAN_MOTION_DOT":-2.83e-6,"MEAN_MOTION_DDOT":0},{"OBJECT_NAME":"USA 164 (MILSTAR-2 3)","OBJECT_ID":"2002-001A","EPOCH":"2023-04-27T02:09:42.776352","MEAN_MOTION":1.00276693,"ECCENTRICITY":0.0100978,"INCLINATION":9.8456,"RA_OF_ASC_NODE":27.7251,"ARG_OF_PERICENTER":352.0546,"MEAN_ANOMALY":246.42,"EPHEMERIS_TYPE":0,"CLASSIFICATION_TYPE":"U","NORAD_CAT_ID":27168,"ELEMENT_SET_NO":999,"REV_AT_EPOCH":2014,"BSTAR":0,"MEAN_MOTION_DOT":3.3e-7,"MEAN_MOTION_DDOT":0},{"OBJECT_NAME":"INTELSAT 904 (IS-904)","OBJECT_ID":"2002-007A","EPOCH":"2023-04-26T17:50:43.019808","MEAN_MOTION":1.00271791,"ECCENTRICITY":0.0002919,"INCLINATION":4.0245,"RA_OF_ASC_NODE":82.521,"ARG_OF_PERICENTER":310.3706,"MEAN_ANOMALY":59.766,"EPHEMERIS_TYPE":0,"CLASSIFICATION_TYPE":"U","NORAD_CAT_ID":27380,"ELEMENT_SET_NO":999,"REV_AT_EPOCH":4026,"BSTAR":0,"MEAN_MOTION_DOT":-2.14e-6,"MEAN_MOTION_DDOT":0},{"OBJECT_NAME":"NSS-7","OBJECT_ID":"2002-019A","EPOCH":"2023-04-26T16:10:12.726624","MEAN_MOTION":1.00271878,"ECCENTRICITY":0.0002636,"INCLINATION":6.6346,"RA_OF_ASC_NODE":68.6413,"ARG_OF_PERICENTER":321.8955,"MEAN_ANOMALY":46.4133,"EPHEMERIS_TYPE":0,"CLASSIFICATION_TYPE":"U","NORAD_CAT_ID":27414,"ELEMENT_SET_NO":999,"REV_AT_EPOCH":7706,"BSTAR":0,"MEAN_MOTION_DOT":-1.58e-6,"MEAN_MOTION_DDOT":0},{"OBJECT_NAME":"DIRECTV 5 (TEMPO 1)","OBJECT_ID":"2002-023A","EPOCH":"2023-04-26T14:01:03.254880","MEAN_MOTION":1.00273144,"ECCENTRICITY":0.0003224,"INCLINATION":1.9256,"RA_OF_ASC_NODE":89.4356,"ARG_OF_PERICENTER":309.2547,"MEAN_ANOMALY":275.7929,"EPHEMERIS_TYPE":0,"CLASSIFICATION_TYPE":"U","NORAD_CAT_ID":27426,"ELEMENT_SET_NO":999,"REV_AT_EPOCH":7661,"BSTAR":0,"MEAN_MOTION_DOT":-5.7e-7,"MEAN_MOTION_DDOT":0},{"OBJECT_NAME":"INTELSAT 905 (IS-905)","OBJECT_ID":"2002-027A","EPOCH":"2023-04-26T17:52:05.861856","MEAN_MOTION":1.00271714,"ECCENTRICITY":0.0002622,"INCLINATION":3.8477,"RA_OF_ASC_NODE":83.2225,"ARG_OF_PERICENTER":304.0375,"MEAN_ANOMALY":70.7512,"EPHEMERIS_TYPE":0,"CLASSIFICATION_TYPE":"U","NORAD_CAT_ID":27438,"ELEMENT_SET_NO":999,"REV_AT_EPOCH":3986,"BSTAR":0,"MEAN_MOTION_DOT":-1.85e-6,"MEAN_MOTION_DDOT":0},{"OBJECT_NAME":"GALAXY 3C (G-3C)","OBJECT_ID":"2002-030A","EPOCH":"2023-04-26T14:05:34.372032","MEAN_MOTION":1.00271838,"ECCENTRICITY":3.91e-5,"INCLINATION":0.7601,"RA_OF_ASC_NODE":91.3112,"ARG_OF_PERICENTER":46.1133,"MEAN_ANOMALY":193.4528,"EPHEMERIS_TYPE":0,"CLASSIFICATION_TYPE":"U","NORAD_CAT_ID":27445,"ELEMENT_SET_NO":999,"REV_AT_EPOCH":3498,"BSTAR":0,"MEAN_MOTION_DOT":-1.54e-6,"MEAN_MOTION_DDOT":0}]
